ALOS (DAICHI)           
1 28931U 06002A   26019.62086014  .00001305  00000+0  22788-3 0  9994
2 28931  98.1141 335.8549 0002172  85.3480 274.7974 14.69615439 66275
H-2A R/B                
1 28932U 06002B   26019.63114558  .00007608  00000+0  39270-3 0  9997
2 28932  98.2340 162.5044 0054251  49.0852 311.5058 15.15357415 87004
RESURS-DK 1             
1 29228U 06021A   26019.26796499  .00002970  00000+0  17680-3 0  9994
2 29228  69.9337   4.8329 0005327 224.2672 135.8068 15.12395035 80058
CZ-4B R/B               
1 29507U 06046C   26019.65387098  .00004956  00000+0  25549-3 0  9994
2 29507  97.5681  64.6903 0035263  78.1783 282.3401 15.16293035 52611
CZ-2C R/B               
1 31114U 07010B   26019.55145382  .00000105  00000+0  66997-4 0  9995
2 31114  98.3971 135.2996 0060051  77.4141 283.3744 14.20225784972745
COSMO-SKYMED 1          
1 31598U 07023A   26019.64763683  .00004349  00000+0  39218-3 0  9994
2 31598  97.8833 210.3052 0000932  81.1330 278.9996 14.96078662  7577
COSMOS 2428             
1 31792U 07029A   26019.54414309  .00000394  00000+0  23702-3 0  9990
2 31792  70.9401 306.5089 0005958 333.2163  26.8649 14.12913955957156
SL-16 R/B               
1 31793U 07029B   26019.44846705 -.00000226  00000+0 -92048-4 0  9995
2 31793  70.9752 275.8933 0002131 273.4088 259.1555 14.14822344958402
KORONAS-FOTON           
1 33504U 09003A   26019.59690040  .00010372  00000+0  24214-3 0  9996
2 33504  82.4331 326.8555 0010589 346.2491  13.8465 15.41987569938174
CZ-2C R/B               
1 37731U 11030B   26019.65362708  .00001126  00000+0  14860-3 0  9992
2 37731  97.8464 337.9348 0053433 148.5192  24.1138 14.81021886782832
H-2A R/B                
1 38341U 12025E   26019.60003818  .00002472  00000+0  22936-3 0  9992
2 38341  98.4653 342.7670 0046091 112.3520 248.2593 14.94704172740888
SHIJIAN-16 (SJ-16)      
1 39358U 13057A   26019.62046848  .00002732  00000+0  27048-3 0  9997
2 39358  74.9738 277.9727 0017715 232.4569 127.5011 14.92158158664187
