CCSDS_OMM_VERS = 2.0
CREATION_DATE  = 
ORIGINATOR     = 

OBJECT_NAME    = ALOS (DAICHI)
OBJECT_ID      = 2006-002A
CENTER_NAME    = EARTH
REF_FRAME      = TEME
TIME_SYSTEM    = UTC
MEAN_ELEMENT_THEORY = SGP/SGP4

EPOCH          = 2026-01-19T14:54:02.316096
MEAN_MOTION    = 14.69615439
ECCENTRICITY   = .00021727
INCLINATION    = 98.1141
RA_OF_ASC_NODE = 335.8549
ARG_OF_PERICENTER = 85.3480
MEAN_ANOMALY   = 274.7974

EPHEMERIS_TYPE = 0
CLASSIFICATION_TYPE = U
NORAD_CAT_ID   = 28931
ELEMENT_SET_NO = 999
REV_AT_EPOCH   = 6627
BSTAR          = .22788417E-3
MEAN_MOTION_DOT = .1305E-4
MEAN_MOTION_DDOT = 0

CCSDS_OMM_VERS = 2.0
CREATION_DATE  = 
ORIGINATOR     = 

OBJECT_NAME    = H-2A R/B
OBJECT_ID      = 2006-002B
CENTER_NAME    = EARTH
REF_FRAME      = TEME
TIME_SYSTEM    = UTC
MEAN_ELEMENT_THEORY = SGP/SGP4

EPOCH          = 2026-01-19T15:08:50.978112
MEAN_MOTION    = 15.15357415
ECCENTRICITY   = .00542514
INCLINATION    = 98.2340
RA_OF_ASC_NODE = 162.5044
ARG_OF_PERICENTER = 49.0852
MEAN_ANOMALY   = 311.5058

EPHEMERIS_TYPE = 0
CLASSIFICATION_TYPE = U
NORAD_CAT_ID   = 28932
ELEMENT_SET_NO = 999
REV_AT_EPOCH   = 8700
BSTAR          = .39270296E-3
MEAN_MOTION_DOT = .7608E-4
MEAN_MOTION_DDOT = 0

CCSDS_OMM_VERS = 2.0
CREATION_DATE  = 
ORIGINATOR     = 

OBJECT_NAME    = RESURS-DK 1
OBJECT_ID      = 2006-021A
CENTER_NAME    = EARTH
REF_FRAME      = TEME
TIME_SYSTEM    = UTC
MEAN_ELEMENT_THEORY = SGP/SGP4

EPOCH          = 2026-01-19T06:25:52.175136
MEAN_MOTION    = 15.12395035
ECCENTRICITY   = .00053275
INCLINATION    = 69.9337
RA_OF_ASC_NODE = 4.8329
ARG_OF_PERICENTER = 224.2672
MEAN_ANOMALY   = 135.8068

EPHEMERIS_TYPE = 0
CLASSIFICATION_TYPE = U
NORAD_CAT_ID   = 29228
ELEMENT_SET_NO = 999
REV_AT_EPOCH   = 8005
BSTAR          = .17679738E-3
MEAN_MOTION_DOT = .297E-4
MEAN_MOTION_DDOT = 0

CCSDS_OMM_VERS = 2.0
CREATION_DATE  = 
ORIGINATOR     = 

OBJECT_NAME    = CZ-4B R/B
OBJECT_ID      = 2006-046C
CENTER_NAME    = EARTH
REF_FRAME      = TEME
TIME_SYSTEM    = UTC
MEAN_ELEMENT_THEORY = SGP/SGP4

EPOCH          = 2026-01-19T15:41:34.452672
MEAN_MOTION    = 15.16293035
ECCENTRICITY   = .00352636
INCLINATION    = 97.5681
RA_OF_ASC_NODE = 64.6903
ARG_OF_PERICENTER = 78.1783
MEAN_ANOMALY   = 282.3401

EPHEMERIS_TYPE = 0
CLASSIFICATION_TYPE = U
NORAD_CAT_ID   = 29507
ELEMENT_SET_NO = 999
REV_AT_EPOCH   = 5261
BSTAR          = .25548666E-3
MEAN_MOTION_DOT = .4956E-4
MEAN_MOTION_DDOT = 0

CCSDS_OMM_VERS = 2.0
CREATION_DATE  = 
ORIGINATOR     = 

OBJECT_NAME    = CZ-2C R/B
OBJECT_ID      = 2007-010B
CENTER_NAME    = EARTH
REF_FRAME      = TEME
TIME_SYSTEM    = UTC
MEAN_ELEMENT_THEORY = SGP/SGP4

EPOCH          = 2026-01-19T13:14:05.610048
MEAN_MOTION    = 14.20225784
ECCENTRICITY   = .00600516
INCLINATION    = 98.3971
RA_OF_ASC_NODE = 135.2996
ARG_OF_PERICENTER = 77.4141
MEAN_ANOMALY   = 283.3744

EPHEMERIS_TYPE = 0
CLASSIFICATION_TYPE = U
NORAD_CAT_ID   = 31114
ELEMENT_SET_NO = 999
REV_AT_EPOCH   = 97274
BSTAR          = .66996577E-4
MEAN_MOTION_DOT = .105E-5
MEAN_MOTION_DDOT = 0

CCSDS_OMM_VERS = 2.0
CREATION_DATE  = 
ORIGINATOR     = 

OBJECT_NAME    = COSMO-SKYMED 1
OBJECT_ID      = 2007-023A
CENTER_NAME    = EARTH
REF_FRAME      = TEME
TIME_SYSTEM    = UTC
MEAN_ELEMENT_THEORY = SGP/SGP4

EPOCH          = 2026-01-19T15:32:35.822112
MEAN_MOTION    = 14.96078662
ECCENTRICITY   = .00009325
INCLINATION    = 97.8833
RA_OF_ASC_NODE = 210.3052
ARG_OF_PERICENTER = 81.1330
MEAN_ANOMALY   = 278.9996

EPHEMERIS_TYPE = 0
CLASSIFICATION_TYPE = U
NORAD_CAT_ID   = 31598
ELEMENT_SET_NO = 999
REV_AT_EPOCH   = 757
BSTAR          = .39217569E-3
MEAN_MOTION_DOT = .4349E-4
MEAN_MOTION_DDOT = 0

CCSDS_OMM_VERS = 2.0
CREATION_DATE  = 
ORIGINATOR     = 

OBJECT_NAME    = COSMOS 2428
OBJECT_ID      = 2007-029A
CENTER_NAME    = EARTH
REF_FRAME      = TEME
TIME_SYSTEM    = UTC
MEAN_ELEMENT_THEORY = SGP/SGP4

EPOCH          = 2026-01-19T13:03:33.962976
MEAN_MOTION    = 14.12913955
ECCENTRICITY   = .0005958
INCLINATION    = 70.9401
RA_OF_ASC_NODE = 306.5089
ARG_OF_PERICENTER = 333.2163
MEAN_ANOMALY   = 26.8649

EPHEMERIS_TYPE = 0
CLASSIFICATION_TYPE = U
NORAD_CAT_ID   = 31792
ELEMENT_SET_NO = 999
REV_AT_EPOCH   = 95715
BSTAR          = .23702215E-3
MEAN_MOTION_DOT = .394E-5
MEAN_MOTION_DDOT = 0

CCSDS_OMM_VERS = 2.0
CREATION_DATE  = 
ORIGINATOR     = 

OBJECT_NAME    = SL-16 R/B
OBJECT_ID      = 2007-029B
CENTER_NAME    = EARTH
REF_FRAME      = TEME
TIME_SYSTEM    = UTC
MEAN_ELEMENT_THEORY = SGP/SGP4

EPOCH          = 2026-01-19T10:45:47.553120
MEAN_MOTION    = 14.14822344
ECCENTRICITY   = .00021313
INCLINATION    = 70.9752
RA_OF_ASC_NODE = 275.8933
ARG_OF_PERICENTER = 273.4088
MEAN_ANOMALY   = 259.1555

EPHEMERIS_TYPE = 0
CLASSIFICATION_TYPE = U
NORAD_CAT_ID   = 31793
ELEMENT_SET_NO = 999
REV_AT_EPOCH   = 95840
BSTAR          = -.92047502E-4
MEAN_MOTION_DOT = -.226E-5
MEAN_MOTION_DDOT = 0

CCSDS_OMM_VERS = 2.0
CREATION_DATE  = 
ORIGINATOR     = 

OBJECT_NAME    = KORONAS-FOTON
OBJECT_ID      = 2009-003A
CENTER_NAME    = EARTH
REF_FRAME      = TEME
TIME_SYSTEM    = UTC
MEAN_ELEMENT_THEORY = SGP/SGP4

EPOCH          = 2026-01-19T14:19:32.194560
MEAN_MOTION    = 15.41987569
ECCENTRICITY   = .00105895
INCLINATION    = 82.4331
RA_OF_ASC_NODE = 326.8555
ARG_OF_PERICENTER = 346.2491
MEAN_ANOMALY   = 13.8465

EPHEMERIS_TYPE = 0
CLASSIFICATION_TYPE = U
NORAD_CAT_ID   = 33504
ELEMENT_SET_NO = 999
REV_AT_EPOCH   = 93817
BSTAR          = .24214266E-3
MEAN_MOTION_DOT = .10372E-3
MEAN_MOTION_DDOT = 0

CCSDS_OMM_VERS = 2.0
CREATION_DATE  = 
ORIGINATOR     = 

OBJECT_NAME    = CZ-2C R/B
OBJECT_ID      = 2011-030B
CENTER_NAME    = EARTH
REF_FRAME      = TEME
TIME_SYSTEM    = UTC
MEAN_ELEMENT_THEORY = SGP/SGP4

EPOCH          = 2026-01-19T15:41:13.379712
MEAN_MOTION    = 14.81021886
ECCENTRICITY   = .0053433
INCLINATION    = 97.8464
RA_OF_ASC_NODE = 337.9348
ARG_OF_PERICENTER = 148.5192
MEAN_ANOMALY   = 24.1138

EPHEMERIS_TYPE = 0
CLASSIFICATION_TYPE = U
NORAD_CAT_ID   = 37731
ELEMENT_SET_NO = 999
REV_AT_EPOCH   = 78283
BSTAR          = .14859721E-3
MEAN_MOTION_DOT = .1126E-4
MEAN_MOTION_DDOT = 0

CCSDS_OMM_VERS = 2.0
CREATION_DATE  = 
ORIGINATOR     = 

OBJECT_NAME    = H-2A R/B
OBJECT_ID      = 2012-025E
CENTER_NAME    = EARTH
REF_FRAME      = TEME
TIME_SYSTEM    = UTC
MEAN_ELEMENT_THEORY = SGP/SGP4

EPOCH          = 2026-01-19T14:24:03.298752
MEAN_MOTION    = 14.94704172
ECCENTRICITY   = .0046091
INCLINATION    = 98.4653
RA_OF_ASC_NODE = 342.7670
ARG_OF_PERICENTER = 112.3520
MEAN_ANOMALY   = 248.2593

EPHEMERIS_TYPE = 0
CLASSIFICATION_TYPE = U
NORAD_CAT_ID   = 38341
ELEMENT_SET_NO = 999
REV_AT_EPOCH   = 74088
BSTAR          = .22936239E-3
MEAN_MOTION_DOT = .2472E-4
MEAN_MOTION_DDOT = 0

CCSDS_OMM_VERS = 2.0
CREATION_DATE  = 
ORIGINATOR     = 

OBJECT_NAME    = SHIJIAN-16 (SJ-16)
OBJECT_ID      = 2013-057A
CENTER_NAME    = EARTH
REF_FRAME      = TEME
TIME_SYSTEM    = UTC
MEAN_ELEMENT_THEORY = SGP/SGP4

EPOCH          = 2026-01-19T14:53:28.476672
MEAN_MOTION    = 14.92158158
ECCENTRICITY   = .00177155
INCLINATION    = 74.9738
RA_OF_ASC_NODE = 277.9727
ARG_OF_PERICENTER = 232.4569
MEAN_ANOMALY   = 127.5011

EPHEMERIS_TYPE = 0
CLASSIFICATION_TYPE = U
NORAD_CAT_ID   = 39358
ELEMENT_SET_NO = 999
REV_AT_EPOCH   = 66418
BSTAR          = .27047893E-3
MEAN_MOTION_DOT = .2732E-4
MEAN_MOTION_DDOT = 0

